[{"OBJECT_NAME":"HAIYANG-1B","OBJECT_ID":"2007-010A","EPOCH":"2026-03-09T22:15:19.251360","MEAN_MOTION":14.3099952,"ECCENTRICITY":0.00143047,"INCLINATION":98.343,"RA_OF_ASC_NODE":54.6595,"ARG_OF_PERICENTER":132.0498,"MEAN_ANOMALY":228.1905,"EPHEMERIS_TYPE":0,"CLASSIFICATION_TYPE":"U","NORAD_CAT_ID":31113,"ELEMENT_SET_NO":999,"REV_AT_EPOCH":98643,"BSTAR":7.2604842e-5,"MEAN_MOTION_DOT":1.5e-6,"MEAN_MOTION_DDOT":0},{"OBJECT_NAME":"NOAA 16 DEB","OBJECT_ID":"2000-055ST","EPOCH":"2026-03-07T10:50:40.523424","MEAN_MOTION":14.2662995,"ECCENTRICITY":0.00088412,"INCLINATION":98.6674,"RA_OF_ASC_NODE":136.2352,"ARG_OF_PERICENTER":320.4029,"MEAN_ANOMALY":39.6505,"EPHEMERIS_TYPE":0,"CLASSIFICATION_TYPE":"U","NORAD_CAT_ID":42399,"ELEMENT_SET_NO":999,"REV_AT_EPOCH":51437,"BSTAR":0.0017727916,"MEAN_MOTION_DOT":4.242e-5,"MEAN_MOTION_DDOT":0}]
